CUTE-1 (CO-55)          
1 27844U 03031E   20286.42572370  .00000057  00000-0  45322-4 0  9992
2 27844  98.6837 292.4011 0010965  78.4021 281.8387 14.22260624896762
CUBESAT XI-IV (CO-57)   
1 27848U 03031J   20285.85311720  .00000042  00000-0  38966-4 0  9992
2 27848  98.6900 292.4025 0010885  91.2534 268.9891 14.21844546896514
CUBESAT XI-V            
1 28895U 05043F   20286.37228227  .00000133  00000-0  34511-4 0  9990
2 28895  98.0266  59.5653 0015475 272.2045  87.7386 14.63808059797941
CUTE-1.7+APD II (CO-65) 
1 32785U 08021C   20285.89699621  .00000231  00000-0  30447-4 0  9991
2 32785  97.5843 268.8577 0014501 105.3129 254.9692 14.88528189675197
AAUSAT-II               
1 32788U 08021F   20285.97091561  .00000352  00000-0  36976-4 0  9999
2 32788  97.4957 285.3178 0012561  31.3549 328.8419 14.95176953676829
DELFI-C3 (DO-64)        
1 32789U 08021G   20285.66589783  .00001389  00000-0  94202-4 0  9991
2 32789  97.4077 324.3538 0010353 277.7312  82.2741 15.07992079679425
SEEDS II (CO-66)        
1 32791U 08021J   20285.56173685  .00000227  00000-0  28178-4 0  9992
2 32791  97.5499 274.6378 0014863  77.1422 283.1457 14.91128786675688
SWISSCUBE               
1 35932U 09051B   20285.94139388  .00000136  00000-0  41730-4 0  9998
2 35932  98.6114 111.9908 0008453 125.1258 235.0732 14.56432566586784
BEESAT-1                
1 35933U 09051C   20285.78050534  .00000114  00000-0  36747-4 0  9994
2 35933  98.6100 113.6916 0006494 135.4626 224.7094 14.56503419586911
ITUPSAT1                
1 35935U 09051E   20286.46225750  .00000089  00000-0  31563-4 0  9998
2 35935  98.6205 114.5784 0008814 135.4349 224.7557 14.55645442586727
TISAT 1                 
1 36799U 10035E   20286.04275542  .00000479  00000-0  54024-4 0  9999
2 36799  98.2025 100.8697 0011253 312.2734  47.7529 14.91443864556506
M-CUBED & EXP-1 PRIME   
1 37855U 11061F   20286.00748717  .00001092  00000-0  60940-4 0  9994
2 37855 101.7254  74.5765 0169990  88.9452 273.1231 15.06632126489220
AEROCUBE 4.5A           
1 38767U 12048K   20285.88087663  .00000283  00000-0  38690-4 0  9992
2 38767  64.6662 232.2554 0134131  94.2132 267.4321 14.92396343 59171
AEROCUBE 4.5B           
1 38768U 12048L   20286.13777700  .00000522  00000-0  54313-4 0  9996
2 38768  64.6673 197.9229 0124140  88.9963 272.5370 14.96109515 59337
STRAND-1                
1 39090U 13009E   20285.51135967  .00000037  00000-0  28069-4 0  9997
2 39090  98.4461 127.3078 0008216 304.2113  55.8293 14.35147298399359
SOMP                    
1 39134U 13015E   20285.93802608  .00001364  00000-0  69431-4 0  9994
2 39134  64.8618 259.8881 0023268 226.2108 133.7096 15.21352543413398
BEESAT-3                
1 39135U 13015F   20286.42166674  .00000750  00000-0  45775-4 0  9999
2 39135  64.8659 283.5954 0028868 224.5266 135.3541 15.18417894413363
BEESAT-2                
1 39136U 13015G   20286.12088207  .00001106  00000-0  63602-4 0  9997
2 39136  64.8738 289.9630 0035301 267.3244  92.3842 15.17811012413213
NEE-01 PEGASO           
1 39151U 13018B   20286.21402129  .00000140  00000-0  25391-4 0  9990
2 39151  97.9764  24.2473 0018380  83.2620 277.0682 14.80211667402954
ESTCUBE 1               
1 39161U 13021C   20286.44368404  .00000176  00000-0  35600-4 0  9990
2 39161  97.9595   7.0967 0008410 220.7966 139.2598 14.72359140399251
POPACS 1                
1 39268U 13055D   20286.12264461  .00002368  00000-0  64786-4 0  9990
2 39268  81.0036 172.7575 0612151 235.4379 118.7594 14.40220714366253
POPACS 2                
1 39269U 13055E   20285.51683201  .00003127  00000-0  89143-4 0  9998
2 39269  81.0157 214.1437 0675371 342.9481  14.9947 14.26052928362526
POPACS 3                
1 39270U 13055F   20285.91400334  .00002772  00000-0  84531-4 0  9999
2 39270  81.0153 237.0053 0709515  48.3974 317.5805 14.17166992341624
ZACUBE-1 (TSHEPISOSAT)  
1 39417U 13066B   20285.88805507  .00000200  00000-0  31513-4 0  9997
2 39417  97.5728 277.4762 0057286 255.8246 103.6598 14.81331856372272
WNISAT-1                
1 39423U 13066H   20286.51376251  .00000053  00000-0  20759-4 0  9990
2 39423  97.7969 199.9863 0173837 250.5593 107.6767 14.53144325365429
TRITON-1                
1 39427U 13066M   20286.09974393  .00000283  00000-0  52581-4 0  9991
2 39427  97.7398 240.6301 0114990  65.2801 296.0323 14.68058212368977
GOMX-1                  
1 39430U 13066Q   20286.22236039  .00000196  00000-0  44364-4 0  9991
2 39430  97.7957 217.7289 0150596 176.2002 184.0386 14.59446257366838
CUBEBUG-2 (LO-74)       
1 39440U 13066AA  20285.88552331  .00000254  00000-0  42231-4 0  9995
2 39440  97.6440 262.0269 0079222 323.1507  36.4274 14.76068127369750
NEE-02 KRYSAOR          
1 39441U 13066AB  20285.90840024  .00000166  00000-0  30833-4 0  9995
2 39441  97.6520 259.5021 0080985 332.7180  26.9787 14.75056539369574
FUNCUBE-1 (AO-73)       
1 39444U 13066AE  20285.88592400  .00000244  00000-0  36246-4 0  9998
2 39444  97.5661 279.7644 0056439 247.2437 112.2807 14.82196906370619
UWE-3                   
1 39446U 13066AG  20285.94545535  .00000208  00000-0  34271-4 0  9990
2 39446  97.6096 269.2249 0068471 290.3162  69.0701 14.78600985369782
AEROCUBE 5A             
1 39465U 13072D   20286.09468746  .00008129  00000-0  65331-3 0  9993
2 39465 120.4927 225.7619 0265680   6.7254 353.7268 14.77382110 58592
AEROCUBE 5B             
1 39466U 13072E   20285.87268959  .00011046  00000-0  73877-3 0  9999
2 39466 120.4879 268.1267 0236847  17.7892 343.1297 14.87530285 58888
BRITE-CA1 (TORONTO)     
1 40020U 14033L   20286.48425780  .00000080  00000-0  21824-4 0  9992
2 40020  97.7320 108.0078 0088605  59.7174 301.2762 14.66664395337925
DUCHIFAT-1              
1 40021U 14033M   20286.39086422  .00000273  00000-0  33445-4 0  9995
2 40021  97.9469 218.3690 0011366 262.1366  97.8561 14.90999298343315
NANOSATC-BR1            
1 40024U 14033Q   20286.07653350  .00000371  00000-0  44247-4 0  9994
2 40024  97.9298 214.0438 0010711 268.8424  91.1566 14.90154458343124
QB50P1                  
1 40025U 14033R   20286.37015758  .00000219  00000-0  29174-4 0  9995
2 40025  97.9155 210.6653 0010955 276.1291  83.8678 14.89205496343008
QB50P2                  
1 40032U 14033Y   20285.78474197  .00000243  00000-0  31991-4 0  9990
2 40032  97.9026 207.2883 0010358 275.0856  84.9178 14.88726891342813
PERSEUS-M2              
1 40037U 14033AD  20285.77698510  .00000066  00000-0  13631-4 0  9995
2 40037  97.8842 201.2210 0013065 293.6524  66.3320 14.86572239341946
PERSEUS-M1              
1 40039U 14033AF  20286.01821185  .00000102  00000-0  17871-4 0  9992
2 40039  97.8800 200.1093 0012867 290.7673  69.2163 14.86192789342396
POLYITAN-1              
1 40042U 14033AJ  20285.78103134  .00000272  00000-0  35027-4 0  9997
2 40042  97.9242 210.6852 0013119 268.3057  91.6657 14.88956906342307
TIGRISAT                
1 40043U 14033AK  20286.14973683  .00000120  00000-0  25043-4 0  9992
2 40043  97.6952 136.6875 0059544 342.8441  17.0755 14.74416590339540
AEROCUBE 6A             
1 40045U 14033AM  20286.18391588  .00000221  00000-0  38938-4 0  9995
2 40045  97.7203 142.7781 0057318 333.6420  26.1876 14.75631424339561
AEROCUBE 6B             
1 40046U 14033AN  20286.32972925  .00000242  00000-0  41847-4 0  9998
2 40046  97.7106 142.0538 0056422 332.2094  27.6104 14.75631601339729
UKUBE-1                 
1 40074U 14037F   20286.46179010  .00000266  00000-0  38926-4 0  9992
2 40074  98.4510 121.7630 0005161  95.7679 264.4126 14.84337279339110
BRITE-PL2 (HEWELIUSZ)   
1 40119U 14049B   20285.85946955  .00000075  00000-0  15304-4 0  9990
2 40119  97.8942  16.9298 0018825  89.1490 271.1881 14.84540775332962
FIREBIRD 4              
1 40378U 15003C   20286.46758329  .00001535  00000-0  62050-4 0  9994
2 40378  99.0868  10.6899 0121724 283.1148  75.6521 15.20510120315092
GRIFEX                  
1 40379U 15003D   20286.46090039  .00000961  00000-0  44166-4 0  9992
2 40379  99.0913   1.8978 0131090 310.6438  48.3450 15.16723876314589
EXOCUBE (CP10)          
1 40380U 15003E   20286.42585564  .00000782  00000-0  38567-4 0  9991
2 40380  99.0975 357.1746 0136513 326.8756  32.3976 15.14629371314260
AEROCUBE 8A             
1 40659U 15025J   20285.83024174  .00022284  00000-0  21080-3 0  9995
2 40659  55.0137 113.1368 0100394 118.4257 242.6943 15.60691691 61703
AEROCUBE 8B             
1 40660U 15025K   20286.09901026  .00023230  00000-0  21659-3 0  9990
2 40660  55.0108 109.4692 0099251 121.2692 239.8115 15.61134925 61763
TIANWANG 1C (TW-1C)     
1 40926U 15051B   20286.40102278  .00032175  00000-0  25003-3 0  9996
2 40926  97.0702 339.2614 0004851  26.1787  99.8992 15.71708388285352
TIANWANG 1A (TW-1A)     
1 40928U 15051D   20286.54219363  .00002751  00000-0  63631-4 0  9994
2 40928  97.1026 311.5166 0012011 113.9938  38.9517 15.43252449283423
EXACTVIEW 9             
1 40936U 15052G   20285.81682121  .00000793  00000-0  21775-4 0  9996
2 40936   6.0031 230.5358 0009945 111.9806 248.1379 14.76601419272456
AEROCUBE 5C             
1 40965U 15058B   20285.87984909  .00000067  00000-0  27455-4 0  9994
2 40965  64.7774 151.3016 0177231  31.5614 329.5973 14.74572842 58475
AEROCUBE 7              
1 40966U 15058C   20285.90385805  .00000139  00000-0  35613-4 0  9994
2 40966  64.7772 149.5428 0176196  31.2161 329.9263 14.74884709 58488
ATHENOXAT 1             
1 41168U 15077C   20286.20502751  .00002381  00000-0  88470-4 0  9995
2 41168  14.9887 284.6629 0011138 313.9005  46.0396 15.14631630267060
GALASSIA                
1 41170U 15077E   20285.63827794  .00002031  00000-0  69310-4 0  9995
2 41170  14.9890 280.2870 0012468 333.9531  26.0163 15.14914800267052
VELOX-II                
1 41171U 15077F   20285.76919517  .00001553  00000-0  49937-4 0  9996
2 41171  14.9921 327.8219 0008619 223.2937 136.6706 15.11861959266645
